[{"OBJECT_NAME":"LEMUR-2-ANDIS","OBJECT_ID":"2017-042P","EPOCH":"2026-03-09T13:25:33.116448","MEAN_MOTION":15.30557934,"ECCENTRICITY":0.0009101,"INCLINATION":97.3659,"RA_OF_ASC_NODE":249.795,"ARG_OF_PERICENTER":4.3248,"MEAN_ANOMALY":355.807,"EPHEMERIS_TYPE":0,"CLASSIFICATION_TYPE":"U","NORAD_CAT_ID":42838,"ELEMENT_SET_NO":999,"REV_AT_EPOCH":47319,"BSTAR":0.00079875,"MEAN_MOTION_DOT":0.00023598,"MEAN_MOTION_DDOT":0},{"OBJECT_NAME":"STARLINK-34009","OBJECT_ID":"2025-093P","EPOCH":"2026-03-09T04:39:18.090432","MEAN_MOTION":15.27586801,"ECCENTRICITY":0.00013736,"INCLINATION":43.0018,"RA_OF_ASC_NODE":77.4691,"ARG_OF_PERICENTER":265.964,"MEAN_ANOMALY":94.1055,"EPHEMERIS_TYPE":0,"CLASSIFICATION_TYPE":"U","NORAD_CAT_ID":63849,"ELEMENT_SET_NO":999,"REV_AT_EPOCH":4793,"BSTAR":0.0014257229,"MEAN_MOTION_DOT":0.00039188,"MEAN_MOTION_DDOT":0}]
